TIANMU-1 08             
1 57400U 23101B   26066.00237819  .00000346  00000+0  14775-4 0  9993
2 57400  97.2717 118.7901 0006380 134.2174 225.9592 15.29204229146020
STARLINK-33727          
1 63719U 25087Y   26068.69432025  .00028693  00000+0  97596-3 0  9997
2 63719  53.1582 219.2984 0000586  92.8431 267.2637 15.30239099 49202
